ERS-1                   
1 21574U 91050A   26095.59790546  .00000469  00000+0  16446-3 0  9993
2 21574  98.7857 114.5067 0032970 121.5690 238.8723 14.39471800819608
ARIANE 40 R/B           
1 21610U 91050F   26095.86223016  .00000422  00000+0  13882-3 0  9997
2 21610  98.1956 147.0714 0003044  17.0562 343.0730 14.42915126822913
INTERCOSMOS 25          
1 21819U 91086A   26095.56720229  .00002038  00000+0  39396-3 0  9995
2 21819  82.6000 293.7570 1486249  59.0218 314.8409 12.12097507499949
SL-8 R/B                
1 21876U 92008B   26095.78257006  .00000034  00000+0  19363-4 0  9992
2 21876  82.9245 247.6195 0035725  60.2815  50.5003 13.75969942713148
SL-8 R/B                
1 21938U 92020B   26095.61654867  .00000015  00000+0 -48052-6 0  9992
2 21938  82.9289 133.7669 0028109 220.3132 254.3921 13.75550706704838
USA 81                  
1 21949U 92023A   26095.76351674  .00000220  00000+0  74136-4 0  9990
2 21949  85.0038 115.8148 0001476  71.3002 288.8351 14.32377426 98663
COSMOS 2219             
1 22219U 92076A   26095.89663462 -.00000144  00000+0 -51065-4 0  9997
2 22219  71.0604 321.1976 0017622 165.5705 194.5924 14.14088432722226
SL-16 R/B               
1 22220U 92076B   26095.82873931 -.00000050  00000+0 -12897-5 0  9993
2 22220  70.9981 131.2090 0010998  46.6432 126.2284 14.16862554725676
COSMOS 2221             
1 22236U 92080A   26095.85558912  .00002974  00000+0  26014-3 0  9996
2 22236  82.5021 253.0502 0015660 100.8371 259.4614 14.96329972784855
SL-16 R/B               
1 22285U 92093B   26095.87677486 -.00000133  00000+0 -43854-4 0  9993
2 22285  71.0216 307.1950 0006663 267.6164  92.4196 14.15455976717009
COSMOS 2228             
1 22286U 92094A   26095.78691320  .00003788  00000+0  32319-3 0  9998
2 22286  82.5201 211.3666 0017349 206.6336 153.3997 14.97346289780112
SL-16 R/B               
1 22566U 93016B   26095.56655975  .00000355  00000+0  20644-3 0  9991
2 22566  71.0072 158.7359 0012426 279.8652  80.1067 14.15309504705974
