CCSDS_OMM_VERS = 2.0
CREATION_DATE  = 
ORIGINATOR     = 

OBJECT_NAME    = ERS-1
OBJECT_ID      = 1991-050A
CENTER_NAME    = EARTH
REF_FRAME      = TEME
TIME_SYSTEM    = UTC
MEAN_ELEMENT_THEORY = SGP/SGP4

EPOCH          = 2026-04-05T14:20:59.031744
MEAN_MOTION    = 14.39471800
ECCENTRICITY   = .003297
INCLINATION    = 98.7857
RA_OF_ASC_NODE = 114.5067
ARG_OF_PERICENTER = 121.5690
MEAN_ANOMALY   = 238.8723

EPHEMERIS_TYPE = 0
CLASSIFICATION_TYPE = U
NORAD_CAT_ID   = 21574
ELEMENT_SET_NO = 999
REV_AT_EPOCH   = 81960
BSTAR          = .16446E-3
MEAN_MOTION_DOT = .469E-5
MEAN_MOTION_DDOT = 0

CCSDS_OMM_VERS = 2.0
CREATION_DATE  = 
ORIGINATOR     = 

OBJECT_NAME    = ARIANE 40 R/B
OBJECT_ID      = 1991-050F
CENTER_NAME    = EARTH
REF_FRAME      = TEME
TIME_SYSTEM    = UTC
MEAN_ELEMENT_THEORY = SGP/SGP4

EPOCH          = 2026-04-05T20:41:36.685824
MEAN_MOTION    = 14.42915126
ECCENTRICITY   = .0003044
INCLINATION    = 98.1956
RA_OF_ASC_NODE = 147.0714
ARG_OF_PERICENTER = 17.0562
MEAN_ANOMALY   = 343.0730

EPHEMERIS_TYPE = 0
CLASSIFICATION_TYPE = U
NORAD_CAT_ID   = 21610
ELEMENT_SET_NO = 999
REV_AT_EPOCH   = 82291
BSTAR          = .13882E-3
MEAN_MOTION_DOT = .422E-5
MEAN_MOTION_DDOT = 0

CCSDS_OMM_VERS = 2.0
CREATION_DATE  = 
ORIGINATOR     = 

OBJECT_NAME    = INTERCOSMOS 25
OBJECT_ID      = 1991-086A
CENTER_NAME    = EARTH
REF_FRAME      = TEME
TIME_SYSTEM    = UTC
MEAN_ELEMENT_THEORY = SGP/SGP4

EPOCH          = 2026-04-05T13:36:46.277856
MEAN_MOTION    = 12.12097507
ECCENTRICITY   = .1486249
INCLINATION    = 82.6000
RA_OF_ASC_NODE = 293.7570
ARG_OF_PERICENTER = 59.0218
MEAN_ANOMALY   = 314.8409

EPHEMERIS_TYPE = 0
CLASSIFICATION_TYPE = U
NORAD_CAT_ID   = 21819
ELEMENT_SET_NO = 999
REV_AT_EPOCH   = 49994
BSTAR          = .39396E-3
MEAN_MOTION_DOT = .2038E-4
MEAN_MOTION_DDOT = 0

CCSDS_OMM_VERS = 2.0
CREATION_DATE  = 
ORIGINATOR     = 

OBJECT_NAME    = SL-8 R/B
OBJECT_ID      = 1992-008B
CENTER_NAME    = EARTH
REF_FRAME      = TEME
TIME_SYSTEM    = UTC
MEAN_ELEMENT_THEORY = SGP/SGP4

EPOCH          = 2026-04-05T18:46:54.053184
MEAN_MOTION    = 13.75969942
ECCENTRICITY   = .0035725
INCLINATION    = 82.9245
RA_OF_ASC_NODE = 247.6195
ARG_OF_PERICENTER = 60.2815
MEAN_ANOMALY   = 50.5003

EPHEMERIS_TYPE = 0
CLASSIFICATION_TYPE = U
NORAD_CAT_ID   = 21876
ELEMENT_SET_NO = 999
REV_AT_EPOCH   = 71314
BSTAR          = .19363E-4
MEAN_MOTION_DOT = .34E-6
MEAN_MOTION_DDOT = 0

CCSDS_OMM_VERS = 2.0
CREATION_DATE  = 
ORIGINATOR     = 

OBJECT_NAME    = SL-8 R/B
OBJECT_ID      = 1992-020B
CENTER_NAME    = EARTH
REF_FRAME      = TEME
TIME_SYSTEM    = UTC
MEAN_ELEMENT_THEORY = SGP/SGP4

EPOCH          = 2026-04-05T14:47:49.805088
MEAN_MOTION    = 13.75550706
ECCENTRICITY   = .0028109
INCLINATION    = 82.9289
RA_OF_ASC_NODE = 133.7669
ARG_OF_PERICENTER = 220.3132
MEAN_ANOMALY   = 254.3921

EPHEMERIS_TYPE = 0
CLASSIFICATION_TYPE = U
NORAD_CAT_ID   = 21938
ELEMENT_SET_NO = 999
REV_AT_EPOCH   = 70483
BSTAR          = -.48052E-6
MEAN_MOTION_DOT = .15E-6
MEAN_MOTION_DDOT = 0

CCSDS_OMM_VERS = 2.0
CREATION_DATE  = 
ORIGINATOR     = 

OBJECT_NAME    = USA 81
OBJECT_ID      = 1992-023A
CENTER_NAME    = EARTH
REF_FRAME      = TEME
TIME_SYSTEM    = UTC
MEAN_ELEMENT_THEORY = SGP/SGP4

EPOCH          = 2026-04-05T18:19:27.846336
MEAN_MOTION    = 14.32377426
ECCENTRICITY   = .0001476
INCLINATION    = 85.0038
RA_OF_ASC_NODE = 115.8148
ARG_OF_PERICENTER = 71.3002
MEAN_ANOMALY   = 288.8351

EPHEMERIS_TYPE = 0
CLASSIFICATION_TYPE = U
NORAD_CAT_ID   = 21949
ELEMENT_SET_NO = 999
REV_AT_EPOCH   = 9866
BSTAR          = .74136E-4
MEAN_MOTION_DOT = .22E-5
MEAN_MOTION_DDOT = 0

CCSDS_OMM_VERS = 2.0
CREATION_DATE  = 
ORIGINATOR     = 

OBJECT_NAME    = COSMOS 2219
OBJECT_ID      = 1992-076A
CENTER_NAME    = EARTH
REF_FRAME      = TEME
TIME_SYSTEM    = UTC
MEAN_ELEMENT_THEORY = SGP/SGP4

EPOCH          = 2026-04-05T21:31:09.231168
MEAN_MOTION    = 14.14088432
ECCENTRICITY   = .0017622
INCLINATION    = 71.0604
RA_OF_ASC_NODE = 321.1976
ARG_OF_PERICENTER = 165.5705
MEAN_ANOMALY   = 194.5924

EPHEMERIS_TYPE = 0
CLASSIFICATION_TYPE = U
NORAD_CAT_ID   = 22219
ELEMENT_SET_NO = 999
REV_AT_EPOCH   = 72222
BSTAR          = -.51065E-4
MEAN_MOTION_DOT = -.144E-5
MEAN_MOTION_DDOT = 0

CCSDS_OMM_VERS = 2.0
CREATION_DATE  = 
ORIGINATOR     = 

OBJECT_NAME    = SL-16 R/B
OBJECT_ID      = 1992-076B
CENTER_NAME    = EARTH
REF_FRAME      = TEME
TIME_SYSTEM    = UTC
MEAN_ELEMENT_THEORY = SGP/SGP4

EPOCH          = 2026-04-05T19:53:23.076384
MEAN_MOTION    = 14.16862554
ECCENTRICITY   = .0010998
INCLINATION    = 70.9981
RA_OF_ASC_NODE = 131.2090
ARG_OF_PERICENTER = 46.6432
MEAN_ANOMALY   = 126.2284

EPHEMERIS_TYPE = 0
CLASSIFICATION_TYPE = U
NORAD_CAT_ID   = 22220
ELEMENT_SET_NO = 999
REV_AT_EPOCH   = 72567
BSTAR          = -.12897E-5
MEAN_MOTION_DOT = -.5E-6
MEAN_MOTION_DDOT = 0

CCSDS_OMM_VERS = 2.0
CREATION_DATE  = 
ORIGINATOR     = 

OBJECT_NAME    = COSMOS 2221
OBJECT_ID      = 1992-080A
CENTER_NAME    = EARTH
REF_FRAME      = TEME
TIME_SYSTEM    = UTC
MEAN_ELEMENT_THEORY = SGP/SGP4

EPOCH          = 2026-04-05T20:32:02.899968
MEAN_MOTION    = 14.96329972
ECCENTRICITY   = .001566
INCLINATION    = 82.5021
RA_OF_ASC_NODE = 253.0502
ARG_OF_PERICENTER = 100.8371
MEAN_ANOMALY   = 259.4614

EPHEMERIS_TYPE = 0
CLASSIFICATION_TYPE = U
NORAD_CAT_ID   = 22236
ELEMENT_SET_NO = 999
REV_AT_EPOCH   = 78485
BSTAR          = .26014E-3
MEAN_MOTION_DOT = .2974E-4
MEAN_MOTION_DDOT = 0

CCSDS_OMM_VERS = 2.0
CREATION_DATE  = 
ORIGINATOR     = 

OBJECT_NAME    = SL-16 R/B
OBJECT_ID      = 1992-093B
CENTER_NAME    = EARTH
REF_FRAME      = TEME
TIME_SYSTEM    = UTC
MEAN_ELEMENT_THEORY = SGP/SGP4

EPOCH          = 2026-04-05T21:02:33.347904
MEAN_MOTION    = 14.15455976
ECCENTRICITY   = .0006663
INCLINATION    = 71.0216
RA_OF_ASC_NODE = 307.1950
ARG_OF_PERICENTER = 267.6164
MEAN_ANOMALY   = 92.4196

EPHEMERIS_TYPE = 0
CLASSIFICATION_TYPE = U
NORAD_CAT_ID   = 22285
ELEMENT_SET_NO = 999
REV_AT_EPOCH   = 71700
BSTAR          = -.43854E-4
MEAN_MOTION_DOT = -.133E-5
MEAN_MOTION_DDOT = 0

CCSDS_OMM_VERS = 2.0
CREATION_DATE  = 
ORIGINATOR     = 

OBJECT_NAME    = COSMOS 2228
OBJECT_ID      = 1992-094A
CENTER_NAME    = EARTH
REF_FRAME      = TEME
TIME_SYSTEM    = UTC
MEAN_ELEMENT_THEORY = SGP/SGP4

EPOCH          = 2026-04-05T18:53:09.300480
MEAN_MOTION    = 14.97346289
ECCENTRICITY   = .0017349
INCLINATION    = 82.5201
RA_OF_ASC_NODE = 211.3666
ARG_OF_PERICENTER = 206.6336
MEAN_ANOMALY   = 153.3997

EPHEMERIS_TYPE = 0
CLASSIFICATION_TYPE = U
NORAD_CAT_ID   = 22286
ELEMENT_SET_NO = 999
REV_AT_EPOCH   = 78011
BSTAR          = .32319E-3
MEAN_MOTION_DOT = .3788E-4
MEAN_MOTION_DDOT = 0

CCSDS_OMM_VERS = 2.0
CREATION_DATE  = 
ORIGINATOR     = 

OBJECT_NAME    = SL-16 R/B
OBJECT_ID      = 1993-016B
CENTER_NAME    = EARTH
REF_FRAME      = TEME
TIME_SYSTEM    = UTC
MEAN_ELEMENT_THEORY = SGP/SGP4

EPOCH          = 2026-04-05T13:35:50.762400
MEAN_MOTION    = 14.15309504
ECCENTRICITY   = .0012426
INCLINATION    = 71.0072
RA_OF_ASC_NODE = 158.7359
ARG_OF_PERICENTER = 279.8652
MEAN_ANOMALY   = 80.1067

EPHEMERIS_TYPE = 0
CLASSIFICATION_TYPE = U
NORAD_CAT_ID   = 22566
ELEMENT_SET_NO = 999
REV_AT_EPOCH   = 70597
BSTAR          = .20644E-3
MEAN_MOTION_DOT = .355E-5
MEAN_MOTION_DDOT = 0

